SPACEMOBILE-004         
1 61049U 24163E   26186.23818463  .00018336  00000+0  83352-3 0  9998
2 61049  52.9657 225.9143 0007515 192.6523 167.4283 15.20791744100516
CZ-8A R/B               
1 66004U 25231K   26186.35911453  .00000047  00000+0  75227-4 0  9990
2 66004  50.0053 322.0052 0116508 287.9807  70.8439 14.30160346 37545
SZ-21 MODULE            
1 66515U 25246C   26186.38889160  .00068939  00000+0  39105-3 0  9993
2 66515  41.4707 193.8301 0005909 149.2124 210.9069 15.78050794 36618
SPACEMOBILE-006         
1 67232U 25309A   26186.33922414  .00002688  00000+0  14336-3 0  9993
2 67232  52.9961 248.4864 0010738 183.0805 177.0124 15.18640942 29355
SPACEMOBILE-008         
1 69589U 26139A   26186.37511343  .00000648  00000+0  53437-4 0  9991
2 69589  52.9937 179.9917 0004555  32.5160 327.6111 15.12792661  2736
SPACEMOBILE-009         
1 69590U 26139B   26186.37638294  .00000666  00000+0  54594-4 0  9993
2 69590  52.9928 179.9954 0004779  27.5177 332.6066 15.12686017  2731
SPACEMOBILE-010         
1 69591U 26139C   26186.37840000  .00000696  00000+0  56567-4 0  9999
2 69591  52.9932 180.0103 0004653  18.4515 341.6644 15.12517151  2747
